     3.04           N: GNSS NAV DATA    M: Mixed            RINEX VERSION / TYPE
CONVBIN 2.4.3                           20230827 174532 UTC PGM / RUN BY / DATE 
format: u-blox UBX                                          COMMENT             
log: .\log3.bin                                             COMMENT             
                                                            END OF HEADER       
G25 2023 08 20 20 00 00  .463278964162D-03  .216004991671D-11  .000000000000D+00
      .750000000000D+02  .578125000000D+02  .486091676241D-08 -.183380168038D+01
      .302493572235D-05  .110968577210D-01  .499561429024D-05  .515368842316D+04
      .720000000000D+05  .262632966042D-06 -.135812662839D+01 -.117346644402D-06
      .952026602655D+00  .279500000000D+03  .105141273654D+01 -.822355682986D-08
      .132148361653D-09  .100000000000D+01  .227600000000D+04  .000000000000D+00
      .200000000000D+01  .000000000000D+00  .558793544769D-08  .750000000000D+02
      .707760000000D+05  .400000000000D+01
G29 2023 08 20 20 00 00 -.608118716627D-03 -.682121026330D-12  .000000000000D+00
      .440000000000D+02 -.494375000000D+02  .409945647310D-08  .184260753728D+01
     -.244379043579D-05  .262658065185D-02  .715255737305D-05  .515372263527D+04
      .720000000000D+05 -.316649675369D-07 -.221194209832D+00  .126659870148D-06
      .975592761697D+00  .248906250000D+03  .252823089725D+01 -.790532928870D-08
     -.377158567311D-09  .100000000000D+01  .227600000000D+04  .000000000000D+00
      .200000000000D+01  .000000000000D+00 -.977888703346D-08  .440000000000D+02
      .707760000000D+05  .400000000000D+01
G11 2023 08 20 20 00 00 -.329963397235D-03 -.175077730091D-10  .000000000000D+00
      .171000000000D+03  .267500000000D+02  .417053086221D-08  .132269642316D+01
      .112317502499D-05  .105841236655D-02  .104438513517D-04  .515358739471D+04
      .720000000000D+05 -.391155481339D-07  .799209088758D+00  .372529029846D-08
      .965748723036D+00  .179125000000D+03 -.281472807608D+01 -.788175687824D-08
      .240724312848D-09  .100000000000D+01  .227600000000D+04  .000000000000D+00
      .200000000000D+01  .000000000000D+00 -.838190317154D-08  .427000000000D+03
      .707760000000D+05  .400000000000D+01
G18 2023 08 20 20 00 00 -.389417167753D-03 -.131876731757D-10  .000000000000D+00
      .146000000000D+03  .113437500000D+02  .396302221864D-08 -.116928057723D+00
      .679865479469D-06  .361927552149D-02  .110231339931D-04  .515366545105D+04
      .720000000000D+05  .633299350739D-07  .767922496586D+00  .130385160446D-07
      .974200546449D+00  .172093750000D+03 -.313286413970D+01 -.783782647693D-08
      .248938940735D-09  .100000000000D+01  .227600000000D+04  .000000000000D+00
      .200000000000D+01  .000000000000D+00 -.838190317154D-08  .914000000000D+03
      .707760000000D+05  .400000000000D+01
R09 2023 08 20 19 45 00  .137773342431D-03  .272848410532D-11  .705600000000D+05
      .121715249023D+05  .133993816376D+01  .000000000000D+00  .000000000000D+00
     -.182124125977D+05 -.119887638092D+01 -.372529029846D-08 -.200000000000D+01
     -.131172666016D+05  .289513587952D+01  .931322574615D-09  .000000000000D+00
R20 2023 08 20 19 45 00 -.986242666841D-04  .000000000000D+00  .705600000000D+05
      .267267333984D+04 -.118236541748D+00  .931322574615D-09  .000000000000D+00
     -.232352895508D+05  .141507625580D+01 -.372529029846D-08  .200000000000D+01
     -.102131157227D+05 -.324573326111D+01  .931322574615D-09  .000000000000D+00
R19 2023 08 20 19 45 00 -.244217924774D-03 -.909494701773D-12  .705600000000D+05
      .972929541016D+04  .210359573364D+00  .000000000000D+00  .000000000000D+00
     -.571366406250D+04  .313094806671D+01 -.931322574615D-09  .300000000000D+01
     -.228783398437D+05 -.693744659424D+00  .186264514923D-08  .000000000000D+00
R18 2023 08 20 19 45 00  .977553427219D-04  .909494701773D-12  .705600000000D+05
      .105377675781D+05  .422580718994D+00  .000000000000D+00  .000000000000D+00
      .105311572266D+05  .281072330475D+01  .186264514923D-08 -.300000000000D+01
     -.206812290039D+05  .164914608002D+01  .186264514923D-08  .000000000000D+00
E26 2023 08 20 19 20 00  .198524154257D-03  .110844666779D-10  .000000000000D+00
      .116000000000D+03  .317187500000D+02  .234331189406D-08  .132122499236D+01
      .123679637909D-05  .198737019673D-03  .118855386972D-04  .544060727310D+04
      .696000000000D+05 -.428408384323D-07  .726904232490D+00 -.149011611938D-07
      .993162033322D+00  .993437500000D+02  .289613741179D+01 -.520700260684D-08
      .206794328100D-09  .513000000000D+03  .227600000000D+04  .000000000000D+00
      .312000000000D+01  .000000000000D+00 -.349245965481D-08 -.419095158577D-08
      .707050000000D+05  .000000000000D+00
G20 2023 08 20 20 00 00  .416182912886D-03 -.204636307899D-11  .000000000000D+00
      .100000000000D+03  .454375000000D+02  .510271254846D-08  .585721153934D+00
      .228919088840D-05  .406057527289D-02  .551529228687D-05  .515360032082D+04
      .720000000000D+05  .428408384323D-07  .162658400994D+01  .987201929092D-07
      .949447301068D+00  .271437500000D+03 -.286587590973D+01 -.846392398498D-08
      .423589072757D-09  .100000000000D+01  .227600000000D+04  .000000000000D+00
      .280000000000D+01  .000000000000D+00 -.838190317154D-08  .100000000000D+03
      .707760000000D+05  .400000000000D+01
G28 2023 08 20 20 00 00  .742943957448D-04 -.375166564481D-11  .000000000000D+00
      .217000000000D+03  .800000000000D+01  .429982196199D-08 -.235463266276D+01
      .450760126114D-06  .642157974653D-03  .118296593428D-04  .515373737335D+04
      .720000000000D+05  .186264514923D-08 -.242644792131D+01 -.558793544769D-08
      .961636175047D+00  .153437500000D+03  .160086986291D+01 -.785246994404D-08
     -.732173355102D-10  .100000000000D+01  .227600000000D+04  .000000000000D+00
      .200000000000D+01  .630000000000D+02 -.977888703346D-08  .729000000000D+03
      .707160000000D+05  .400000000000D+01
R16 2023 08 20 19 45 00  .178879126906D-04  .909494701773D-12  .707100000000D+05
      .210132016602D+05 -.584802627563D+00 -.931322574615D-09  .000000000000D+00
     -.137972109375D+05  .239015579224D+00 -.279396772385D-08 -.100000000000D+01
      .445806494141D+04  .350502395630D+01 -.931322574615D-09  .000000000000D+00
C30 2023 08 20 19 00 00 -.376999378204D-05 -.522248910784D-12  .000000000000D+00
      .100000000000D+01 -.485625000000D+02  .359264964828D-08 -.238739629748D+01
     -.251084566116D-05  .372449983843D-03  .999914482236D-05  .528262026024D+04
      .684000000000D+05 -.791624188423D-08  .134148544808D+00  .745058059692D-08
      .960551402273D+00  .156875000000D+03  .733859179106D+00 -.675063833404D-08
     -.256796410887D-09  .000000000000D+00  .920000000000D+03  .000000000000D+00
      .200000000000D+01  .000000000000D+00 -.990000000000D-08 -.990000000000D-08
      .707100000000D+05  .100000000000D+01
